ONEWEB-0235             
1 48771U 21045E   25133.52309521 -.00000081  00000+0 -24934-3 0  9995
2 48771  87.9052 338.8488 0001172  87.5580 272.5684 13.15548683191836
ONEWEB-0242             
1 48772U 21045F   25134.04916267  .00000016  00000+0  81927-5 0  9998
2 48772  87.9051 338.7298 0001564  82.5434 277.5874 13.15548861193074
ONEWEB-0241             
1 48773U 21045G   25134.11254657  .00000038  00000+0  67922-4 0  9997
2 48773  87.9039 338.7827 0001520 101.6568 258.4733 13.15548495192997
ONEWEB-0243             
1 48774U 21045H   25134.06816832 -.00000040  00000+0 -14047-3 0  9995
2 48774  87.9062 338.7660 0001276  86.0004 274.1272 13.15549719193015
ONEWEB-0222             
1 48775U 21045J   25134.05154034 -.00000069  00000+0 -21742-3 0  9995
2 48775  87.9048 338.7356 0001641  91.7450 268.3868 13.15548229193040
ONEWEB-0244             
1 48776U 21045K   25133.54528615  .00000128  00000+0  30727-3 0  9996
2 48776  87.9049 338.8157 0001600  81.9981 278.1331 13.15549314192428
ONEWEB-0247             
1 48777U 21045L   25134.07450655  .00000043  00000+0  79096-4 0  9993
2 48777  87.9057 338.7773 0000739  88.4983 271.6231 13.15549810193066
ONEWEB-0245             
1 48778U 21045M   25133.53735324  .00000020  00000+0  20029-4 0  9990
2 48778  87.9050 338.8525 0001701  95.0240 265.1085 13.15549649191834
